Address,ID(Google),Latitude,Longitude,Name,Price_Level(Google),Rating(Google),Zip
"1425 SW 2nd Ave, Portland, OR 97201, USA",cb564dcadf1592a0cd1664da1073f3282b8ed2e5,45.5130011,-122.6774084,Mika Sushi,2.0,4.1,97201
"1338 SW 3rd Ave, Portland, OR 97201, USA",40f9f48421a4640b74f5fb24902b133abd46df58,45.5137909,-122.6776391,Mizu Sushi,2.0,4.2,97201
"200 SW Market St, Portland, OR 97201, USA",f94709bb5a3587afd791429cdd1ddc6380535a19,45.5118053,-122.6783552,Murata,2.0,4.6,97201
"315 SW Montgomery St #150, Portland, OR 97201, USA",4f393b43a6b5e968ff5ad3ccb18b64666514132d,45.51004950000001,-122.6737244,YoMi Sushi,0.0,3.9,97201
"1988 SW Broadway, Portland, OR 97201, USA",4e9693b4efe28db7db41618e2e46c611aeb0abce,45.5094168,-122.6848189,Blue Fin,2.0,3.4,97201
"1808 SW 5th Ave, Portland, OR 97201, USA",5c958997f2e6805f7d5273bfb9faff5672fe3b55,45.511278,-122.6814555,Sumo Sushi,0.0,4.7,97201
"2415 SW 5th Ave, Portland, OR 97201, USA",bbf65838514e4daac71760257dc610abc68ce0e9,45.50554450000001,-122.6835449,Sushi Takahashi 2,2.0,4.6,97201
"1235 SW Jefferson St, Portland, OR 97201, USA",23cf632efaaba4780b1f06330337552105a7d34b,45.5168526,-122.6868303,Shizuku,2.0,4.7,97201
"404 SW 12th Ave, Portland, OR 97205, USA",56522d1b4aec26ee0c89802ee0c20bdc4e52b4c5,45.52242,-122.6829456,Bamboo Sushi SW,3.0,4.5,97205
"310 SE 28th Ave, Portland, OR 97214, USA",1a826c355db01530e7d44d7ba1bad7fa1ffc89db,45.5205237,-122.6370773,Bamboo Sushi SE,2.0,4.6,97214
"836 NW 23rd Ave, Portland, OR 97210, USA",587390675b66224eef30ab9c25b3be7701ed030f,45.52889709999999,-122.6983065,Bamboo Sushi NW,0.0,4.6,97210
"1022 NW Johnson St, Portland, OR 97209, USA",8ffe733900250cb42c54b913e0a16404a755bc56,45.5285327,-122.6816826,Sinju Sushi,2.0,4.1,97209
"606 SW Broadway, Portland, OR 97205, USA",e1b16a9c8abe2de2006ed6dc1cfaef9cde3922c5,45.5197333,-122.6791829,Koji Osakaya Japanese Restaurant,1.0,4.1,97205
"1409 NE Alberta St, Portland, OR 97211, USA",82347c663a0fd20f4d314e78763f42d92955a991,45.5592141,-122.6513237,Bamboo Sushi NE,0.0,4.5,97211
"710 SW 2nd Ave, Portland, OR 97204, USA",03058c9ca37df1179c14afadbe04e00117ce1fb7,45.5176869,-122.6745775,Sensei Sushi Bar & Grill,0.0,4.5,97204
"926 NW 10th Ave, Portland, OR 97209, USA",7c99b946029d48509c1ddd3dba423af5ebffd178,45.5298261,-122.6811913,Yama Sushi & Sake Bar,2.0,4.6,97209
"406 SW 13th Ave, Portland, OR 97205, USA",b99d7d797720d12a5eb15938d3876aedecdbd61c,45.522484,-122.684079,Masu Sushi,2.0,4.3,97205
"1317 NW Hoyt St, Portland, OR 97209, USA",3c7496a198d076fe1e7ce6cf4e62ebbc14a8ba20,45.527314,-122.6849019,Mio Sushi,1.0,4.0,97209
"980 SE Madison St, Portland, OR 97214, USA",71547f44aff54ed2a953fee5053fdb43da212c3d,45.5127313,-122.6558826,Wasabi Sushi PDX,0.0,4.4,97214
"2271 NW Johnson St, Portland, OR 97210, USA",55c6a82aa33347dd8b2538f471fa79dad38e3406,45.52853349999999,-122.6980988,Mio Sushi,2.0,4.1,97210
"80 SE Madison St, Portland, OR 97214, USA",35845fc37cedcfb19e414f010d12641329fd2190,45.5127526,-122.6650655,Sushi Mazi,0.0,4.7,97214
"910 SW Salmon St, Portland, OR 97205, USA",f609d35ca0acf285f80d7df6660cb617146c069f,45.517678,-122.6825653,Shigezo,2.0,4.2,97205
"506 SW 6th Ave, Portland, OR 97204, USA",fc09ecc00ff37bd7e119ed2a6ad9b398f617e2f1,45.520235,-122.6777027,Sushi Sakura,2.0,3.9,97204
"1710 SE Tacoma St, Portland, OR 97202, USA",e2fc7bd42146a8ce80eb6a16f99bb49658bdcd72,45.4641292,-122.6467415,Mio Sushi,2.0,4.1,97202
"3962 SE Hawthorne Blvd # E, Portland, OR 97214, USA",0eb2ea675a42ed6a11cade7cae2d80ae58aab87f,45.5118479,-122.6213603,Mio Sushi,2.0,3.8,97214
"1667 SE Bybee Blvd, Portland, OR 97202, USA",9de6bc42ba0b3039ebdedb49b1030539e82429a6,45.4738975,-122.6484626,Saburos Sushi House Restaurant,1.0,4.1,97202
"4204 NE Halsey St, Portland, OR 97213, USA",c4eaf49ef97188947f4437b1d0a048db88378d40,45.5336106,-122.6201307,Mio Sushi,1.0,4.0,97213
"10100 SW Barbur Blvd, Portland, OR 97219, USA",ce1449bfbd8a4e5ed60f6f3436a3a2b9e27fa0a4,45.45223600000001,-122.7235517,SHO Japanese Restaurant,2.0,4.4,97219
"7007 SW Macadam Ave, Portland, OR 97219, USA",3e0ad6b94ff0a53432859e16993696c9d88a2671,45.473409,-122.6720562,Koji Osakaya,2.0,3.9,97219
"930 SW Washington St & Southwest 9th Avenue, Portland, OR 97201, USA",f8da2e36030d2ea3f3ab67ceab7fa3dfa1bcfbe3,45.5210072,-122.6808286,Rolling Gourmet Fusion,0.0,4.9,97201
"1337 NE Broadway St, Portland, OR 97232, USA",8b69795911bf7634413d5f70fa05e8fd520a3667,45.53521079999999,-122.6516513,Yuki Japanese Restaurant,2.0,4.2,97232
"アメリカ合衆国, 2038 SE Clinton St, Portland, OR 97202, United States",f57c5ca085f23627384f2358204b9f4eadaf4caa,45.503237,-122.6447609,Yama Sushi & Izakaya,0.0,4.7,97202
"2126 SE Division St, Portland, OR 97202, USA",a5a0db857af4717b5d946c99149ab9902b32670b,45.5046641,-122.6440116,Sushi Mazi,2.0,4.5,97202
"5714 SE Powell Blvd, Portland, OR 97206, USA",a9f4c56e02faeb42627894b4c9ec56581cab65ed,45.4972742,-122.603511,Ichidai Japanese Restaurant,2.0,4.5,97206
"40 SW 3rd Ave, Portland, OR 97204, USA",6c69f66e8373f332aa936d272a86b2f3d2f799de,45.5224008,-122.6730423,SuBe,0.0,4.4,97204
"1502 NE Weidler St, Portland, OR 97232, USA",37d30c2cf2e3b95fe244dfe21acbc2a69f248cb7,45.5341932,-122.6502799,Koji Osakaya,1.0,4.2,97232
"138 NW 10th Ave, Portland, OR 97209, USA",6bdfa5233d193755aab1f365cc31a01096bdb6f6,45.524275,-122.68101,Marinepolis Sushi Land,1.0,3.6,97209
"24 NW Broadway, Portland, OR 97209, USA",ae4b22a6ef4bb5fb0e7927ba703c40a95c2e5c42,45.5235097,-122.6772887,Sushi Ichiban,0.0,4.4,97209
"3940 N Mississippi Ave, Portland, OR 97227, USA",dcb03523068702d6b47331b9f8223ca835fdacf2,45.5514101,-122.6751927,UCHU Sushi,2.0,4.2,97227
"539 NW 21st Ave, Portland, OR 97209, USA",eb59839571b3ac16086acb1ab632a00b3b343b22,45.5268902,-122.6945643,San Sai Japanese Grill,2.0,4.2,97209
"2878 SE Gladstone St, Portland, OR 97202, USA",14d558e7864c798f91fdb06ec0c8fdae8ed684df,45.49320669999999,-122.6360474,Yoko's,2.0,4.3,97202
"3810 SE Division St, Portland, OR 97202, USA",76a1a982cf7f63f9527a4ad958a562cfe007ca5d,45.504583,-122.6241433,Yataimura Maru,0.0,4.4,97202
"1122 SE Tacoma St, Portland, OR 97202, USA",e6027cff3eb6e5eb1d78a2665798e2d088921d76,45.464181,-122.6544034,SushiLove,0.0,4.4,97202
"7316 N Lombard St, Portland, OR 97203, USA",8610316977cca104432ecbf986e7898812c05ff8,45.5876482,-122.7422957,Kazumi Sushi,0.0,4.8,97203
"2735 N Killingsworth St, Portland, OR 97217, USA",128d8c9d8520c2673cb1a806fb72a9d1c9145139,45.5629313,-122.6953587,Mio Sushi,1.0,4.0,97217
"5003 N Lombard St, Portland, OR 97203, USA",673e553a797716fea3c3f515cd157d4b8ddd00ff,45.5812159,-122.7199203,Origami Catering,0.0,3.2,97203
"4964, 6516 N Denver Ave, Portland, OR 97217, United States",cea64bb7aaf5315c22b6391ba8abbe6274592f33,45.5702545,-122.6870575,Sushi One,0.0,4.6,97217
"12200 N Parker Ave, Portland, OR 97217, USA",9d543bc3274341ed721e7c3cface0254ec0e51fd,45.61162119999999,-122.6813229,Stanford's Restaurant & Bar,2.0,4.0,97217
"9501 N Lombard St, Portland, OR 97203, USA",0a476880b585559672a3c922a3cb8f56752491db,45.5948291,-122.7592367,Du's Teriyaki,0.0,4.3,97203
"4233 N Mississippi Ave, Portland, OR 97217, USA",028eae98765242a0c7b6ef6b77f2e3a53568b511,45.5544044,-122.6760264,Teppanyaki Hut,0.0,4.8,97217
"1255 NW 185th Ave, Aloha, OR 97006, USA",37a25362d7eba8396493288dad0ccb2d0e99f435,45.529198,-122.8689812,Mio Sushi,1.0,4.5,97006
"12600 SW Cres St, Beaverton, OR 97005, USA",0c93b008f8e36d44ab8826cf0682150a4019d193,45.4909611,-122.806841,Mio Sushi,1.0,4.1,97005
"1806 NE Alberta St, Portland, OR 97211, USA",11261442ec14578da84f5aafaa3d34d01f37ce67,45.5589271,-122.646618,Zilla Sake,2.0,4.4,97211
"16165 SW Regatta Ln #500, Beaverton, OR 97006, USA",ac9367787a4c9eb96cc38a921a31fd1309a04335,45.5176951,-122.8434102,Crazy Sushi Shoten,0.0,4.4,97006
"1409 NE Weidler St, Portland, OR 97232, USA",ceaf42203baaf20563a1e6039f00034cd822d2ad,45.5344339,-122.6511443,Marinepolis Sushi Land,1.0,3.5,97232
"2201 Lloyd Center, Portland, OR 97232, USA",d30bc810222248dda76d63f387a01102dae08a8e,45.532812,-122.6537677,Sarku Japan,1.0,2.8,97232
"7339 SW Bridgeport Rd, Tigard, OR 97224, USA",fd8c56a40a658b47c100a0ef8e1ce33f8fa6e46e,45.39723799999999,-122.753011,Sinju Sushi,2.0,4.0,97224
"4021 SW 117th Ave, Beaverton, OR 97005, USA",71b81996ebfad08b3a9122364f7fbaecaedbb0ce,45.4902495,-122.7994614,Marinepolis Sushi Land,1.0,3.1,97005
"11635 SW Beaverton Hillsdale, Beaverton, OR 97005, USA",146893e7b55783901c97b09649a40d3a09a31d9d,45.48737120000001,-122.797182,Sushi Track,2.0,3.7,97005
"14605 SW Millikan Way, Beaverton, OR 97006, USA",10092576c3db82a3cbb098fcd19fe8738d61d795,45.495306,-122.8270759,Sushi Hana,0.0,4.2,97006
"2330 NW Thurman St, Portland, OR 97210, USA",30a9f3bd0683b0b06ca7e889479b721e080dd316,45.53533609999999,-122.6996638,Wild Wasabe Japanese Bistro,2.0,4.1,97210
"9009 SW Hall Blvd # 142, Tigard, OR 97223, USA",092b4468d56a312fc61c1c7f6538caf3c0fc5475,45.4536261,-122.7778692,Sushi Hana,1.0,4.1,97223
"9205 SW Cascade Ave, Beaverton, OR 97008, USA",f559a73bc1f0770cc01be61c8b871a69c8f10f8d,45.4533452,-122.7855534,Benihana,2.0,4.2,97008
"5411 NE 30th Ave, Portland, OR 97211, USA",54b262343b7f1ce3f1a86c292783240bbfa096ab,45.5623,-122.635149,Yakuza Lounge,2.0,4.1,97211
"11705 SW Pacific Hwy #M, Tigard, OR 97223, USA",8b929195e6ec2ddd2c12a1c9c273ad59c0b6c6c1,45.4373462,-122.7584068,Sushi Hana,1.0,4.2,97223
"9665 SW Washington Square Rd, Portland, OR 97223, USA",e4848ce84711a3f5b5c7ac1145ff182fb0487792,45.450392,-122.7805415,Sarku Japan,1.0,2.3,97223
"2236 NE Alberta St, Portland, OR 97211, USA",2d1463857a4e7a1d6245eba57e9ad4eff56e0bd4,45.558965,-122.6421041,Hana Japanese Bistro,2.0,4.3,97211
"111 5th Ave, Portland, OR 97204, USA",59daf0d6bb4bb0270c5adc0bf817d4545c8270e2,45.5227363,-122.6758635,Portland City Grill,2.0,4.3,97204
"525 SW Morrison St, Portland, OR 97204, USA",9c91fdbe4bb4174c7c2319c4b6d72f2ea612272a,45.518943,-122.6777971,Departure Restaurant + Lounge,2.0,4.2,97204
"214 SW Broadway, Portland, OR 97205, USA",d73fe0ebba073515165aac7a74e950a7a960a90b,45.5223539,-122.6777143,Saucebox,2.0,3.9,97205
"1122 SW Stark St, Portland, OR 97205, USA",87c94477001946e8eaffc9b3a3d1677548b5a0f4,45.5223507,-122.6823588,QuickFish Poke Bar,1.0,4.2,97205
"950 SW Alder St, Portland, OR 97205, USA",8f687ef36843fe283b81db97388301c81e6900b4,45.520602,-122.6811353,Samurai Bento,0.0,0.0,97205
"1126 SW Alder St, Portland, OR 97205, USA",4d383db86fcff0162d320aca1ba7c2d74b052aff,45.5209781,-122.6834547,Chizu,2.0,4.9,97205
"1025 SW Stark St, Portland, OR 97205, USA",ad2c4b70d7f1a44317372be63c646a1f23c05d9e,45.5222933,-122.6816299,Boxer Ramen,2.0,4.3,97205
"1205 SW Washington St, Portland, OR 97205, USA",44533f96b8f09d912b26c2e9e41ff681ab650628,45.5220302,-122.6837089,Grassa,1.0,4.4,97205
"4807 SE Woodstock Blvd # A, Portland, OR 97206, USA",8121c3b9fc854419d812b9feaa8a3b2e1cac9d54,45.479375,-122.613097,Shoko Sushi,2.0,4.3,97206
"4768 SE Division St, Portland, OR 97206, USA",df044e7a4c28207074e1268231d952d1db85d469,45.5050276,-122.613331,Tokio Table - Japanese Steakhouse,0.0,4.6,97206
"4124 SE 82nd Ave #550, Portland, OR 97266, USA",c247a7332d2e3d97110e68f3ae8bb15606bd6226,45.4926931,-122.5783511,Fujiyama Sushi Bar & Grill,0.0,4.2,97266
"422 SE 81st Ave, Portland, OR 97215, USA",433f55107924584832c2fbcbc59200400e87aa9f,45.51938,-122.5804026,Miyamoto,0.0,4.7,97215
"1703 NW 16th Ave, Portland, OR 97209, USA",a5ba59267757cc768707288ed901b90af9145279,45.5353885,-122.6880544,JST Seafood Market,0.0,3.8,97209
"107 NW Couch St, Portland, OR 97209, USA",16fd5118940b25530d721a1efa2952942f508dc4,45.5240853,-122.6717152,Uogashi Restaurant and Cooking School,0.0,4.0,97209
"1640 NE Killingsworth St, Portland, OR 97211, USA",3efaa2eb18472f1be7baa6e582423ec225c4f612,45.56255789999999,-122.6482987,Daruma Sushi + Sake,2.0,4.2,97211
"730 NE 181st Ave, Portland, OR 97230, USA",deee1ec53d2b01914db0765fcc6b314a1cd3dd4e,45.5280382,-122.4761639,Meeka Sushi Japanese Restaurant,1.0,4.4,97230
"2832 SE Belmont St, Portland, OR 97214, USA",7a626e4cbc09bee551c533790c34025be1951056,45.51627000000001,-122.63632,Nodoguro,4.0,5.0,97214
"10324 SE Holgate Blvd, Portland, OR 97266, USA",52e3492a9ea82a194558870857835894f0723755,45.489486,-122.556714,Takahashi,2.0,4.6,97266
"536 E Burnside St, Portland, OR 97214, USA",d7905b32613ab604f07d50cab55d5d1f547989e8,45.5227797,-122.660016,Mirakutei,2.0,4.4,97214
"1507 NE Fremont St, Portland, OR 97212, USA",96c565e13baba5aca4555939b2cb32cbbb0077ef,45.54834719999999,-122.6501595,Mojo Sushi,0.0,4.5,97212
"625 NE Killingsworth St, Portland, OR 97211, USA",1c3ab2436cce590a8e75b9bcf0ed0a849710db78,45.5629014,-122.6589563,Rollin' Fresh Sushiritos And Poke'- Killingsworth,0.0,4.7,97211
"10822 SE 82nd Ave, Portland, OR 97086, USA",ab315015de67f2b41710437bc035f54a62ef4f44,45.4445341,-122.5772515,Sushi & Maki,2.0,4.5,97086
"102 NE Russell St, Portland, OR 97212, USA",50790997fd403b9f7733e3051ab4140f7c138de4,45.5407787,-122.6639598,Izakaya Kichinto,2.0,4.5,97212
"923 SE 7th Ave, Portland, OR 97214, USA",494610b727d1c5fa5a9c8f940290d3a024e21bb7,45.5160199,-122.6590207,Afuri,2.0,4.4,97214
"10127 NE Cascades Pkwy, Portland, OR 97220, USA",3d40b899f66a7d33768460630f891ae2c1833264,45.5731148,-122.5576034,Hot Pot 'N Sushi,2.0,3.2,97220
"13599 NW Cornell Rd, Portland, OR 97229, USA",9f53ab0e065a71cd4d23194e2d029f11842539bb,45.5285537,-122.8163074,Ichiban,2.0,4.4,97229
"4029 NE Sandy Blvd, Portland, OR 97212, USA",f7b09277bbdbe33ff1c4a4eac1c34a2bdd9c89a1,45.5354752,-122.6217894,Sushi Chiyo,0.0,4.3,97212
"1422 Northeast Broadway, Portland, OR 97232, USA",999b9a9a9a72e77c15ad015b0f5db782b3a282bd,45.5349239,-122.6509559,Sushi Ohana,0.0,4.3,97232
"11003 SE Division St, Portland, OR 97266, USA",276d71e9690af0342d80f9bb917fd5d5e521fb40,45.504485,-122.5499298,Kyoto Sushi,0.0,4.4,97266
"4118 NE Sandy Blvd, Portland, OR 97212, USA",82b7b6b7cabf089ad9b7e5e5a581b348a9c811e2,45.5353804,-122.6211326,Saima Thai & Sushi,0.0,4.9,97212
"1501 NE Fremont St, Portland, OR 97212, USA",ab15435d9f65b9d723c54b1993e19a082ad9752e,45.54833989999999,-122.6502588,Daddy Mojo's Cafe,0.0,4.0,97212
"4434 NE Sandy Blvd, Portland, OR 97213, USA",16150dc25eff77fd6af3470a5f573e8b77591945,45.5370883,-122.6174065,Teriyaki Town,2.0,4.3,97213
"4118 NE Sandy Blvd, Portland, OR 97212, USA",2c6d11b5cce37fed8ea0d0f319b3f16002bea2af,45.535415,-122.621054,Pono Farm Soul Kitchen,0.0,4.3,97212
"5235 NE Sandy Blvd, Portland, OR 97213, USA",da71d4ca14e64d0e38cd87af98b0919f7b59c162,45.5405469,-122.6098499,Let's Roll PDX- NE Sandy,0.0,4.7,97213
"5045, 3272 SE Hawthorne Blvd, Portland, OR 97214, United States",21db0c172c2169769b4c224bbfe1043b60511d6d,45.5119106,-122.6310387,Saké Izakaya Sushi & Thai,0.0,3.7,97214
"1420 SE 37th Ave, Portland, OR 97214, USA",9188696990778d75aeb797a05fd46376d6610e37,45.5124724,-122.6261064,Toney Bento,1.0,3.8,97214
"1524 SE 20th Ave, Portland, OR 97214, USA",3f1a6fa29ffe8607fdd9bb764d09af05f9912ce3,45.5119386,-122.6449855,Nimblefish,0.0,3.9,97214
"1430 SE Water Ave, Portland, OR 97214, USA",c61a8c12bfff20e44eaf7e0098ca6425933af79c,45.5123995,-122.6654729,Noraneko,0.0,4.2,97214
"215 SE 9th Ave, Portland, OR 97214, USA",c0b7c40356541a4bb5166bd03b40710d198b0ef1,45.5213771,-122.6568747,Biwa,2.0,4.1,97214
"1234 SE 7th Ave, Portland, OR 97214, USA",1c6d8f6b930f21fe492e995f95bc8a0084afc7f0,45.513797,-122.6584269,Kokiyo Teriyaki,2.0,4.4,97214
"3207 SE Hawthorne St, Portland, OR 97214, USA",19733ecef31c9211f1bf6fe95bdb2487d37cd654,45.51227,-122.632326,Rollin Fresh Sushiritos And Poke’ - Hawthorne,0.0,5.0,97214
"1505 SE 31st Ave, Portland, OR 97214, USA",0f27a72f300803cc802cdf5186dab885ec93b661,45.511835,-122.633897,SeaSweets Poke,0.0,4.7,97214
"3106 SE Hawthorne Blvd, Portland, OR 97214, USA",837d07f33182613b3f495f668a2ec27f3c387e62,45.5119406,-122.6336172,CUBO (El Cubo de Cuba),1.0,4.4,97214
"8029 SE Stark St, Portland, OR 97215, USA",931c44cd55eda9023cc9a699891c0ac47b2a5178,45.519299,-122.580828,Tanuki,0.0,4.9,97215
"10308 SE Washington St, Portland, OR 97216, USA",df63362b35f0df1e5acab31d4241240c41802eb5,45.5179337,-122.5573476,Fujiyama Sushi Bar,0.0,4.3,97216
"9738 SE Washington St M, Portland, OR 97216, USA",5adc10adeb9b6ccf187e813303022b85ae32132e,45.5175299,-122.5629776,Umenoki Kaiten,2.0,4.0,97216
"8230 SE Harrison St #310, Portland, OR 97216, USA",3ee2e86bc8550af08455f1170df667646d60a8f2,45.5076486,-122.5782693,98 Degrees Sushi,0.0,4.3,97216
"3715 N Lombard St, Portland, OR 97217, USA",1547c91a55d759016355ea00d32eaef3ddafcb5e,45.577376,-122.7048863,Bong Teriyaki,0.0,4.3,97217
"Portland, OR 97218, USA",9178df5673e3d33b26578b213850c01aabf842ec,45.59062,-122.5943741,Hissho Sushi,0.0,3.3,97218
"7000 NE Airport Way, Portland, OR 97218, United States",0affc386559483cccf578039cbc7f3d80567279e,45.5889029,-122.5939809,Stanford's Restaurant & Bar,2.0,4.3,97218
"8424 SE Sunnyside Rd, Clackamas, OR 97015, USA",0bd2da6c407de56d98115b3f910eade6abd8f299,45.4325623,-122.576337,Marinepolis Sushi Land: Clackamas,1.0,2.7,97015
"12000 SE 82nd Ave #3075, Happy Valley, OR 97086, USA",59c59dfcdfdc9dd54ac68ac21b96c1831fc8a717,45.4353348,-122.5756125,Sinju Sushi - Clackamas,2.0,3.6,97086
"5432 SE 82nd Ave, Portland, OR 97266, USA",3de0c06ad955ae3d40dad16b32a74138529655ed,45.4830461,-122.5773054,Sushi Sushi Japanese Restaurant,2.0,4.2,97266
"12430 SW Main St, Portland, OR 97223, USA",9c8d6b0d380d5b8b20233e3448901afe95e0c600,45.4302081,-122.7714223,MAKI Japanese Restaurant,2.0,4.3,97223
"7555 SW Barbur Blvd, Portland, OR 97219, USA",0cea518b3fee9f7a06974750f5eca5ea9ecaef06,45.4702999,-122.6906253,AFC Sushi,0.0,5.0,97219
"6141 SW Macadam Ave, Unit 106 Southwest Macadam Avenue, Portland, OR 97239, United States",cb984a2e51cc99ab82b0495389716ec2144d64a6,45.478822,-122.673238,Thai PK Sushi BAR,0.0,4.6,97239
"6238 SW Capitol Hwy, Portland, OR 97239, USA",6c9009055deefdfd1b291875b249ff6e7d01b970,45.4785838,-122.6929847,idea sushi,0.0,5.0,97239
"13809 SE McLoughlin Blvd, Portland, OR 97222, USA",0e1ac3f34ce8a88b67be1cabe4ff18dacecf37a6,45.4233138,-122.6341615,Sushi Kata Japanese Restaurant,2.0,4.6,97222
"7194 SW Hazel Fern Rd, Portland, OR 97224, USA",34878e5c1d753c1094c29a1743148fd5566bfb47,45.394452,-122.750367,Marinepolis Sushi Land,0.0,3.9,97224
"6551 SW Beaverton Hillsdale Hwy, Portland, OR 97225, USA",1afbdd183bbc74574c77e8d328a28cc48b9857d4,45.48760619999999,-122.7442511,Tokyo Grill,0.0,4.5,97225
"8166 SW Hall Blvd, Beaverton, OR 97008, USA",305f9446c6eb0a453eb7a997094b43ebf0181b89,45.4611692,-122.7934278,Banya Japanese Restaurant,2.0,4.5,97008
"9230 SW Beaverton Hillsdale Hwy, Beaverton, OR 97005, USA",872e2f495d5f111376d176909267ec2fae28e462,45.485892,-122.771905,Sambi Japanese Restaurant,2.0,4.6,97005
"14800 SW Murray Scholls #101, Beaverton, OR 97007, USA",71d7f84a74d578a900e334a39e5efb6dbbffbb0a,45.4371227,-122.8290679,Sushi Town,0.0,3.8,97007
"10204 SW Park Way, Portland, OR 97225, USA",c811ac4c37e4baebb70073ad33239ac926df4eab,45.50724599999999,-122.782044,NW Teriyaki House,1.0,4.9,97225
"4130 SW 117th Ave, Beaverton, OR 97005, USA",18ca371a134c6f73b45cc01c6d6ba3cde7649f80,45.4903149,-122.7970266,Yuzu,2.0,4.6,97005
"10500 SW Beaverton Hillsdale Hwy, Beaverton, OR 97005, USA",89325ac76165caa0f91b283f407de3dd9726e5cd,45.4853073,-122.7847641,Ramen Ryoma,0.0,4.6,97005
"3486 SW Cedar Hills Blvd, Beaverton, OR 97005, USA",67f91750f8463d95837877e7f21dd993f84ad1cb,45.4946754,-122.8088642,Kigaru Sushi,0.0,4.7,97005
"14308 SW Allen Blvd, Beaverton, OR 97005, USA",edd13d4b8210dad061500ee78e86b0f54f3be32e,45.4754002,-122.8238802,Sushi Ikenohana,2.0,4.5,97005
"745 SW 185th Ave, Beaverton, OR 97006, USA",95221b7bcf2dd1564c85c703c0070b33496b4317,45.514544,-122.8687545,Toshi Restaurant,2.0,4.5,97006
"15135 SW Barrows Rd #145, Beaverton, OR 97007, USA",d5cfd4ff7a006eeaa2ed0f1406992069c79ffb78,45.4295333,-122.8322272,Nikki Sushi & Steak,0.0,4.2,97007
"3655 SW Hall Blvd, Beaverton, OR 97005, USA",845899179da88846927b818c6f2df7cb3eab8cbe,45.4934328,-122.8087908,Sushi Me,0.0,4.0,97005
"13435 SW Tualatin Valley Hwy, Beaverton, OR 97005, USA",6e85cd79edfd70f22e3cd219db50f1b94021adfc,45.4887303,-122.8152348,Beaverton Black Bear Diner,1.0,4.3,97005
"15151 SW Barrows Rd #153, Beaverton, OR 97007, USA",2e2c3e9f29c932713b6b6cdbbaa18d8e276b2008,45.4290891,-122.8320741,La Provence at Progress Ridge,0.0,4.3,97007
"12925 SW Canyon Rd, Beaverton, OR 97005, USA",8ce10502a83490202d9c3e1b9ca1ef1315b858e7,45.4886857,-122.8094704,Tom's Pancake House,2.0,4.2,97005
"3635 SW Hall Blvd, Beaverton, OR 97005, USA",f20be0e5e202296cd2e9e7831e5194df78e3e20b,45.49353079999999,-122.8090077,Best Baguette,1.0,4.6,97005
"20265 SW Tualatin Valley Hwy, Beaverton, OR 97006, USA",f8af17513f0417ff00f84cf27cbd285cc360569b,45.496813,-122.886115,Sushi Zen,2.0,4.4,97006
"9945 SW Beaverton Hillsdale Hwy, Beaverton, OR 97005, USA",24ff091bbcb3f9a861377f414b2dbd9bd1d9108c,45.4869067,-122.778748,McCormick's Fish House & Bar,0.0,3.9,97005
"3800 SW Cedar Hills Blvd, Beaverton, OR 97005, USA",95bb0d7fee3017213beacbe68ec89e470781047f,45.492039,-122.810169,Thai Bloom!,2.0,4.4,97005
"16261 NW Cornell Rd, Beaverton, OR 97006, USA",6133de84d4c665b8ae405eb5e90a1f121be50a37,45.53134660000001,-122.844204,Taste Of Sichuan Beaverton,2.0,4.3,97006
"12600 SW Cres St Suite 150, Beaverton, OR 97005, USA",49997010f0beb6866cfb85999ebccbc2a003e402,45.4907323,-122.8064415,Siam Lotus Asian Kitchen & Bar,0.0,4.5,97005
"4545 SW Watson Ave, Beaverton, OR 97005, USA",cfab2cdcb624831b9c2aa0d81e80378237690f1d,45.48676500000001,-122.806397,Decarli Restaurant,2.0,4.4,97005
"8136 SW Hall Blvd, Beaverton, OR 97008, USA",4ef2e1c933bb445699eb5ed3383ef71d60794e4a,45.46130970000001,-122.7937979,The Fireside Grill,0.0,4.5,97008
"11830 NW Cedar Falls Dr, Portland, OR 97229, USA",63f0623424d403148c2b2717f2654e3e6f25f555,45.52171389999999,-122.8020456,Kizuki Ramen & Izakaya,0.0,4.4,97229
"4325 SW 109th Ave, Beaverton, OR 97005, USA",04c878c427be90189d643990f0670b8e8c0327a6,45.4888692,-122.7891735,Beaverton Swagat Indian Cuisine,2.0,4.3,97005
"2434, 8975 SW Beaverton Hillsdale Hwy, Portland, OR 97225, United States",89d824fa50b9755fb133d8e1ffe59eeca1760c7d,45.4865381,-122.7689538,China Delight,2.0,4.1,97225
"8544 SW Apple Way, Portland, OR 97225, USA",563d2965235a486f5d65662425616eb9d6b1c35c,45.4852858,-122.7654317,Ernesto's Italian Restaurant,2.0,4.2,97225
"3435 SW Cedar Hills Blvd, Beaverton, OR 97005, USA",eba650fd9ee1c73474c9d3785b8f2ab109d79c33,45.4947372,-122.8101949,Veggie Grill,2.0,4.5,97005
"6850 SW Beaverton Hillsdale Hwy, Portland, OR 97225, USA",665bc2e0bac1d5a32835f8f7f8516397786186d0,45.4861586,-122.7476931,Thai Roses,2.0,4.2,97225
"7331 SW Barnes Rd, Portland, OR 97225, USA",b09d05b97be2d07cfb90e3f017062de8507ac0d5,45.5161585,-122.7527142,Joy Wok,0.0,4.1,97225
"3808 N Williams Ave #124, Portland, OR 97227, USA",27d35f5d039478a17785c5c1843b796f59b3f70f,45.55028919999999,-122.6663747,Kayo's Ramen Bar,1.0,4.5,97227
"4804 NW Bethany Blvd, Portland, OR 97229, USA",f510a3f3602b427e384123abaa3ec57c53bd5795,45.55487000000001,-122.835404,Bethany Sushi,2.0,4.3,97229
"11835 NW Cedar Falls Dr, Portland, OR 97229, USA",e2879557d7ad54fe66f2c39832f12bc83ca4cd4b,45.5219206,-122.8015623,Sushi Mioga,0.0,4.0,97229
"421 NW Saltzman Rd, Portland, OR 97229, USA",60d3af3cb6aaa233f570993be35df4c193e33d58,45.52357050000001,-122.8064482,Sun Grill Teriyaki,0.0,4.8,97229
"18033 NW Evergreen Pkwy, Hillsboro, OR 97006, USA",567e4c680e9a0e0a1390a3cef20629613cafbe82,45.5366783,-122.8616152,Sushi Town,2.0,3.8,97006
"12055 SW 1st St, Beaverton, OR 97005, USA",cdcaa4c3066a627aa4c7ab7b23a9278578000cf5,45.48593,-122.8005714,Waba Restaurant,0.0,4.3,97005
"2308 NW Amberbrook Dr, Beaverton, OR 97006, USA",bc68cf8af85ee69d5037d2eb1a68953c46f84a97,45.5361145,-122.8843702,Soba Teriyaki,0.0,4.1,97006
"9078, 2215 NW Allie Ave, Hillsboro, OR 97124, United States",571a45086c8d420306d970a59a522ed1ebf324d8,45.5372374,-122.8785841,Shogun Sushi,0.0,4.0,97124
"11923 SW Canyon Rd, Beaverton, OR 97005, USA",baf8477aa9cf7db4236880ca1433778bc7114ea4,45.48965889999999,-122.7995069,Zen Teriyaki,0.0,4.5,97005
"18305 NW West Union Rd, Portland, OR 97229, USA",868b70b6b93e875781afabf517c94be3d2bae0a8,45.5584657,-122.865214,Teriyaki Woo,0.0,4.7,97229
"12865 SW Canyon Rd, Beaverton, OR 97005, USA",824ce0312245ef131aff1d2afec7a13e9f64e55b,45.48861,-122.808832,Superbowl Teriyaki,0.0,4.5,97005
"1335 NE Orenco Station Pkwy E, Hillsboro, OR 97124, USA",e30b86f0ec83b1eb0111ad83370f539a728fa784,45.53452859999999,-122.9170264,Yuki Japanese Restaurant,2.0,4.3,97124
"7212 NE Cornell Rd, Hillsboro, OR 97124, USA",5b9bc56bbcacdfb29dca90fb9730682c833fd4de,45.5381321,-122.9042687,Hot Pot 'N Sushi,2.0,3.7,97124
"7183 NE Imbrie Dr, Hillsboro, OR 97124, USA",449d2f13503836a5da45940ee17469ed4dbd2935,45.54991099999999,-122.907074,O Sushi,0.0,4.3,97124
"1861 NW 188th Ave, Hillsboro, OR 97124, USA",4705334ac2954b7308cadf8d9bc583404a87d031,45.533196,-122.8713685,Wassabi,2.0,4.2,97124
"1676 NE 181st Ave, Portland, OR 97230, USA",12cf62d75f3b5492f626c59cb657a6d270950a48,45.5350791,-122.47679,Sushi Village,0.0,4.5,97230
"4240 NE 122nd Ave, Portland, OR 97230, USA",a4a68c5a0f238133cbfeaa1710c1c1f3f64a896b,45.553324,-122.5366879,Yuki & Song Japanese Restaurant,0.0,4.3,97230
"12427 NE Glisan St, Portland, OR 97230, USA",c190ade945565f9e1f02dbe4c5234f904f05efe1,45.5269463,-122.5353021,Portland Teriyaki,0.0,4.4,97230
"1407 NE 181st Ave, Portland, OR 97230, USA",7585a8a4055bf14278dea1fba19083996e8b6e83,45.5330498,-122.4790392,Joy Teriyaki,2.0,4.0,97230
"1835 Columbia Blvd, St Helens, OR 97051, USA",6572d44e277b7ef4e97e7fc5076e61a2071c5ce8,45.8586828,-122.8164017,Miyako Restaurant,2.0,4.5,97051
"5309 W Baseline Rd, Hillsboro, OR 97123, USA",9264122186d49bd220bfb75d8ae85234e2b82b7f,45.520233,-122.9282827,Hero Sushi,0.0,4.6,97123
"2401 NE Cornell Rd, Hillsboro, OR 97124, USA",d118399a0a374cec27d1e4815abe002d5c7a4166,45.53157119999999,-122.9575163,Sushi & Maki,2.0,4.4,97124
"209 NE Lincoln St, Hillsboro, OR 97124, USA",d97468473d665a69e1a15e8d53e71b382534d20f,45.5241219,-122.9876013,Syun Izakaya,2.0,4.6,97124
"615 SW Broadway, Portland, OR 97205, USA",1e445ddfac24baa5b79dab12a882f2ef8d9ad165,45.519839,-122.679616,Bonsai By Sake Japanese & Thai Cuisine,0.0,4.2,97205
"4138 NE Broadway St, Portland, OR 97232, USA",b601506859807e13d2629051c84d0a683ecab7be,45.5350235,-122.6204429,Bluefin Sushi Bar,2.0,4.4,97232
"913 Lloyd Center, Portland, OR 97232, USA",fdaf265734b8f3cde92fadc45a8f75beb250fc92,45.53186520000001,-122.6557702,Stanford's,2.0,3.7,97232
"16255 SE Division St, Portland, OR 97236, USA",f2ca94af73aaf5f942bfe14177ed92ae7247bca0,45.5048898,-122.495315,Ichi Teriyaki 23,0.0,4.2,97236
"663 NW Division St, Gresham, OR 97030, USA",6e474e396f966a66feb324e323aba1b9121ab02c,45.5047156,-122.4387864,Sushiville,1.0,3.2,97030
"14800 SE Powell Blvd # 2, Portland, OR 97236, USA",eed06684378e23fb3dd4748e0d3c5769554a8497,45.49766169999999,-122.5103971,Charlie's Teriyaki,0.0,3.3,97236
"1064 SW Highland Dr, Gresham, OR 97080, USA",6d68231e0774c6312d5cacff96d2ae4b88c4f42f,45.4890473,-122.475194,Yami Sushi & Teriyaki,0.0,4.6,97080
"12270 SE Sunnyside Rd, Clackamas, OR 97015, USA",58bcbddfcd886935e665573d532447ef8bbd208f,45.4276834,-122.5373686,Fuji's Clackamas,2.0,4.4,97015
"15725 SE Happy Valley Town Center Dr, Happy Valley, OR 97015, USA",0f22927434ad3bc0520e426849c0bfc7868b8757,45.4280233,-122.5007191,Sushi Moto,0.0,3.9,97015
"2838 SE 82nd Ave, Portland, OR 97266, USA",39bd44c66783105ded372a337817f85d660315c1,45.5019182,-122.5773982,O'Sushi,0.0,3.9,97266
"7217 SE 82nd Ave, Portland, OR 97266, USA",06cc130c9a105f578adae89b6340326041e8cad0,45.470695,-122.5793653,Happy Teriyaki,0.0,4.2,97266
"4104 SE 82nd Ave, Portland, OR 97266, USA",87bb4a0e10c514e63cd3f63452e21dfdceb4f7e7,45.4929429,-122.5780006,Happy Teriyaki,0.0,4.2,97266
